[{"OBJECT_NAME":"BRO-11","OBJECT_ID":"2023-174J","EPOCH":"2026-03-09T23:01:09.890400","MEAN_MOTION":15.26267731,"ECCENTRICITY":0.00104518,"INCLINATION":97.3961,"RA_OF_ASC_NODE":146.7679,"ARG_OF_PERICENTER":189.9892,"MEAN_ANOMALY":170.1141,"EPHEMERIS_TYPE":0,"CLASSIFICATION_TYPE":"U","NORAD_CAT_ID":58264,"ELEMENT_SET_NO":999,"REV_AT_EPOCH":12961,"BSTAR":0.00032296323,"MEAN_MOTION_DOT":8.313e-5,"MEAN_MOTION_DDOT":0},{"OBJECT_NAME":"STARLINK-35617","OBJECT_ID":"2025-259A","EPOCH":"2026-03-09T21:59:43.846080","MEAN_MOTION":15.27597426,"ECCENTRICITY":0.00014513,"INCLINATION":42.9975,"RA_OF_ASC_NODE":273.2752,"ARG_OF_PERICENTER":358.983,"MEAN_ANOMALY":1.1019,"EPHEMERIS_TYPE":0,"CLASSIFICATION_TYPE":"U","NORAD_CAT_ID":66422,"ELEMENT_SET_NO":999,"REV_AT_EPOCH":1952,"BSTAR":0.0014261737,"MEAN_MOTION_DOT":0.00039213,"MEAN_MOTION_DDOT":0}]
